CTC1_L_00084001-01
1 25145U 23713JM  26070.40832176  .00000000  00000+0  00000-0 0  9998
2 25145  50.0000   0.0000 0000000   0.0000   0.0000 14.79785908    13
CTC1_L_00084001-02
1 25146U 23882IM  26070.40832176  .00000000  00000+0  00000-0 0  9996
2 25146  50.0000   0.0000 0000000   0.0000  90.0000 14.79785908    13
CTC1_L_00084001-03
1 25147U 25688NQ  26070.40832176  .00000000  00000+0  00000-0 0  9993
2 25147  50.0000   0.0000 0000000   0.0000 180.0000 14.79785908    14
CTC1_L_00084001-04
1 25148U 22685UA  26070.40832176  .00000000  00000+0  00000-0 0  9998
2 25148  50.0000   0.0000 0000000   0.0000 270.0000 14.79785908    15
CTC1_L_00084002-01
1 25149U 22351RV  26070.40832176  .00000000  00000+0  00000-0 0  9999
2 25149  50.0000  12.0000 0000000   0.0000  12.0000 14.79785908    13
CTC1_L_00084002-02
1 25150U 24308IB  26070.40832176  .00000000  00000+0  00000-0 0  9995
2 25150  50.0000  12.0000 0000000   0.0000 102.0000 14.79785908    15
CTC1_L_00084002-03
1 25151U 26941XN  26070.40832176  .00000000  00000+0  00000-0 0  9991
2 25151  50.0000  12.0000 0000000   0.0000 192.0000 14.79785908    15
CTC1_L_00084002-04
1 25152U 23415DU  26070.40832176  .00000000  00000+0  00000-0 0  9995
2 25152  50.0000  12.0000 0000000   0.0000 282.0000 14.79785908    16
CTC1_L_00084003-01
1 25153U 26573LQ  26070.40832176  .00000000  00000+0  00000-0 0  9994
2 25153  50.0000  24.0000 0000000   0.0000  24.0000 14.79785908    14
CTC1_L_00084003-02
1 25154U 24118QF  26070.40832176  .00000000  00000+0  00000-0 0  9998
2 25154  50.0000  24.0000 0000000   0.0000 114.0000 14.79785908    15
CTC1_L_00084003-03
1 25155U 26397PC  26070.40832176  .00000000  00000+0  00000-0 0  9990
2 25155  50.0000  24.0000 0000000   0.0000 204.0000 14.79785908    16
CTC1_L_00084003-04
1 25156U 25697YD  26070.40832176  .00000000  00000+0  00000-0 0  9993
2 25156  50.0000  24.0000 0000000   0.0000 294.0000 14.79785908    16
CTC1_L_00084004-01
1 25157U 23440MU  26070.40832176  .00000000  00000+0  00000-0 0  9998
2 25157  50.0000  36.0000 0000000   0.0000  36.0000 14.79785908    14
CTC1_L_00084004-02
1 25158U 24891UW  26070.40832176  .00000000  00000+0  00000-0 0  9990
2 25158  50.0000  36.0000 0000000   0.0000 126.0000 14.79785908    15
CTC1_L_00084004-03
1 25159U 26020JD  26070.40832176  .00000000  00000+0  00000-0 0  9997
2 25159  50.0000  36.0000 0000000   0.0000 216.0000 14.79785908    16
CTC1_L_00084004-04
1 25160U 26582GP  26070.40832176  .00000000  00000+0  00000-0 0  9992
2 25160  50.0000  36.0000 0000000   0.0000 306.0000 14.79785908    18
CTC1_L_00084005-01
1 25161U 24203CL  26070.40832176  .00000000  00000+0  00000-0 0  9991
2 25161  50.0000  48.0000 0000000   0.0000  48.0000 14.79785908    15
CTC1_L_00084005-02
1 25162U 23502VS  26070.40832176  .00000000  00000+0  00000-0 0  9993
2 25162  50.0000  48.0000 0000000   0.0000 138.0000 14.79785908    16
CTC1_L_00084005-03
1 25163U 23720TV  26070.40832176  .00000000  00000+0  00000-0 0  9996
2 25163  50.0000  48.0000 0000000   0.0000 228.0000 14.79785908    17
CTC1_L_00084005-04
1 25164U 23496FR  26070.40832176  .00000000  00000+0  00000-0 0  9997
2 25164  50.0000  48.0000 0000000   0.0000 318.0000 14.79785908    18
CTC1_L_00084006-01
1 25165U 22296GW  26070.40832176  .00000000  00000+0  00000-0 0  9995
2 25165  50.0000  60.0000 0000000   0.0000  60.0000 14.79785908    17
CTC1_L_00084006-02
1 25166U 25771YO  26070.40832176  .00000000  00000+0  00000-0 0  9997
2 25166  50.0000  60.0000 0000000   0.0000 150.0000 14.79785908    18
CTC1_L_00084006-03
1 25167U 26883QP  26070.40832176  .00000000  00000+0  00000-0 0  9993
2 25167  50.0000  60.0000 0000000   0.0000 240.0000 14.79785908    19
CTC1_L_00084006-04
1 25168U 25318UN  26070.40832176  .00000000  00000+0  00000-0 0  9996
2 25168  50.0000  60.0000 0000000   0.0000 330.0000 14.79785908    10
CTC1_L_00084007-01
1 25169U 24787IP  26070.40832176  .00000000  00000+0  00000-0 0  9996
2 25169  50.0000  72.0000 0000000   0.0000  72.0000 14.79785908    17
CTC1_L_00084007-02
1 25170U 25433UD  26070.40832176  .00000000  00000+0  00000-0 0  9997
2 25170  50.0000  72.0000 0000000   0.0000 162.0000 14.79785908    19
CTC1_L_00084007-03
1 25171U 25337BQ  26070.40832176  .00000000  00000+0  00000-0 0  9991
2 25171  50.0000  72.0000 0000000   0.0000 252.0000 14.79785908    10
CTC1_L_00084007-04
1 25172U 26766YJ  26070.40832176  .00000000  00000+0  00000-0 0  9999
2 25172  50.0000  72.0000 0000000   0.0000 342.0000 14.79785908    11
CTC1_L_00084008-01
1 25173U 26746HV  26070.40832176  .00000000  00000+0  00000-0 0  9998
2 25173  50.0000  84.0000 0000000   0.0000  84.0000 14.79785908    18
CTC1_L_00084008-02
1 25174U 25575GO  26070.40832176  .00000000  00000+0  00000-0 0  9998
2 25174  50.0000  84.0000 0000000   0.0000 174.0000 14.79785908    19
CTC1_L_00084008-03
1 25175U 22291UF  26070.40832176  .00000000  00000+0  00000-0 0  9991
2 25175  50.0000  84.0000 0000000   0.0000 264.0000 14.79785908    10
CTC1_L_00084008-04
1 25176U 23760PW  26070.40832176  .00000000  00000+0  00000-0 0  9994
2 25176  50.0000  84.0000 0000000   0.0000 354.0000 14.79785908    11
CTC1_L_00084009-01
1 25177U 22699LW  26070.40832176  .00000000  00000+0  00000-0 0  9995
2 25177  50.0000  96.0000 0000000   0.0000  96.0000 14.79785908    18
CTC1_L_00084009-02
1 25178U 23143HD  26070.40832176  .00000000  00000+0  00000-0 0  9991
2 25178  50.0000  96.0000 0000000   0.0000 186.0000 14.79785908    19
CTC1_L_00084009-03
1 25179U 26969VA  26070.40832176  .00000000  00000+0  00000-0 0  9991
2 25179  50.0000  96.0000 0000000   0.0000 276.0000 14.79785908    10
CTC1_L_00084009-04
1 25180U 25895OQ  26070.40832176  .00000000  00000+0  00000-0 0  9990
2 25180  50.0000  96.0000 0000000   0.0000   6.0000 14.79785908    13
CTC1_L_00084010-01
1 25181U 26223EC  26070.40832176  .00000000  00000+0  00000-0 0  9997
2 25181  50.0000 108.0000 0000000   0.0000 108.0000 14.79785908    11
CTC1_L_00084010-02
1 25182U 26420KC  26070.40832176  .00000000  00000+0  00000-0 0  9997
2 25182  50.0000 108.0000 0000000   0.0000 198.0000 14.79785908    11
CTC1_L_00084010-03
1 25183U 22345CA  26070.40832176  .00000000  00000+0  00000-0 0  9990
2 25183  50.0000 108.0000 0000000   0.0000 288.0000 14.79785908    12
CTC1_L_00084010-04
1 25184U 22475QB  26070.40832176  .00000000  00000+0  00000-0 0  9995
2 25184  50.0000 108.0000 0000000   0.0000  18.0000 14.79785908    14
CTC1_L_00084011-01
1 25185U 23468QQ  26070.40832176  .00000000  00000+0  00000-0 0  9999
2 25185  50.0000 120.0000 0000000   0.0000 120.0000 14.79785908    13
CTC1_L_00084011-02
1 25186U 25241PB  26070.40832176  .00000000  00000+0  00000-0 0  9991
2 25186  50.0000 120.0000 0000000   0.0000 210.0000 14.79785908    14
CTC1_L_00084011-03
1 25187U 26526NS  26070.40832176  .00000000  00000+0  00000-0 0  9999
2 25187  50.0000 120.0000 0000000   0.0000 300.0000 14.79785908    15
CTC1_L_00084011-04
1 25188U 26235ZL  26070.40832176  .00000000  00000+0  00000-0 0  9997
2 25188  50.0000 120.0000 0000000   0.0000  30.0000 14.79785908    16
CTC1_L_00084012-01
1 25189U 25267MX  26070.40832176  .00000000  00000+0  00000-0 0  9992
2 25189  50.0000 132.0000 0000000   0.0000 132.0000 14.79785908    13
CTC1_L_00084012-02
1 25190U 23598SH  26070.40832176  .00000000  00000+0  00000-0 0  9999
2 25190  50.0000 132.0000 0000000   0.0000 222.0000 14.79785908    15
CTC1_L_00084012-03
1 25191U 25479Q   26070.40832176  .00000000  00000+0  00000-0 0  9990
2 25191  50.0000 132.0000 0000000   0.0000 312.0000 14.79785908    16
CTC1_L_00084012-04
1 25192U 22565WV  26070.40832176  .00000000  00000+0  00000-0 0  9994
2 25192  50.0000 132.0000 0000000   0.0000  42.0000 14.79785908    17
CTC1_L_00084013-01
1 25193U 25326SN  26070.40832176  .00000000  00000+0  00000-0 0  9993
2 25193  50.0000 144.0000 0000000   0.0000 144.0000 14.79785908    14
CTC1_L_00084013-02
1 25194U 26675GL  26070.40832176  .00000000  00000+0  00000-0 0  9992
2 25194  50.0000 144.0000 0000000   0.0000 234.0000 14.79785908    15
CTC1_L_00084013-03
1 25195U 25686IK  26070.40832176  .00000000  00000+0  00000-0 0  9994
2 25195  50.0000 144.0000 0000000   0.0000 324.0000 14.79785908    16
CTC1_L_00084013-04
1 25196U 25861NV  26070.40832176  .00000000  00000+0  00000-0 0  9990
2 25196  50.0000 144.0000 0000000   0.0000  54.0000 14.79785908    17
CTC1_L_00084014-01
1 25197U 22848EI  26070.40832176  .00000000  00000+0  00000-0 0  9993
2 25197  50.0000 156.0000 0000000   0.0000 156.0000 14.79785908    14
CTC1_L_00084014-02
1 25198U 23271DP  26070.40832176  .00000000  00000+0  00000-0 0  9995
2 25198  50.0000 156.0000 0000000   0.0000 246.0000 14.79785908    15
CTC1_L_00084014-03
1 25199U 23480KX  26070.40832176  .00000000  00000+0  00000-0 0  9998
2 25199  50.0000 156.0000 0000000   0.0000 336.0000 14.79785908    16
CTC1_L_00084014-04
1 25200U 23934CV  26070.40832176  .00000000  00000+0  00000-0 0  9995
2 25200  50.0000 156.0000 0000000   0.0000  66.0000 14.79785908    19
CTC1_L_00084015-01
1 25201U 25299WU  26070.40832176  .00000000  00000+0  00000-0 0  9992
2 25201  50.0000 168.0000 0000000   0.0000 168.0000 14.79785908    16
CTC1_L_00084015-02
1 25202U 26012MP  26070.40832176  .00000000  00000+0  00000-0 0  9997
2 25202  50.0000 168.0000 0000000   0.0000 258.0000 14.79785908    17
CTC1_L_00084015-03
1 25203U 25598KJ  26070.40832176  .00000000  00000+0  00000-0 0  9996
2 25203  50.0000 168.0000 0000000   0.0000 348.0000 14.79785908    18
CTC1_L_00084015-04
1 25204U 22535EP  26070.40832176  .00000000  00000+0  00000-0 0  9995
2 25204  50.0000 168.0000 0000000   0.0000  78.0000 14.79785908    19
CTC1_L_00084016-01
1 25205U 26450QY  26070.40832176  .00000000  00000+0  00000-0 0  9996
2 25205  50.0000 180.0000 0000000   0.0000 180.0000 14.79785908    18
CTC1_L_00084016-02
1 25206U 23459GP  26070.40832176  .00000000  00000+0  00000-0 0  9993
2 25206  50.0000 180.0000 0000000   0.0000 270.0000 14.79785908    19
